HST                     
1 20580U 90037B   25328.24132975  .00008056  00000+0  28128-3 0  9999
2 20580  28.4700  38.3591 0001914  46.3474 313.7280 15.27680812757160
POLAR                   
1 23802U 96013A   25322.76785454  .00000092  00000+0  00000+0 0  9993
2 23802  79.6081 229.4139 6261894 216.1974  78.1071  1.29845965142127
SWAS                    
1 25560U 98071A   25328.35507750  .00005193  00000+0  34570-3 0  9994
2 25560  69.8979  35.0582 0007931 235.8695 124.1717 15.07723797466376
CXO                     
1 25867U 99040B   25330.74983849  .00000762  00000+0  00000+0 0  9998
2 25867  52.7007 123.1580 8166605 310.7173   0.1897  0.37798395 16558
XMM-NEWTON              
1 25989U 99066A   25328.91747986  .00000119  00000+0  00000+0 0  9993
2 25989  65.5232 285.6821 4750902  68.4785   0.3041  0.50133158 21989
TERRA                   
1 25994U 99068A   25328.45974088  .00000567  00000+0  12500-3 0  9994
2 25994  97.9772  20.8121 0003075 135.1072 352.3411 14.60921463379712
CLUSTER II-FM7 (SAMBA)  
1 26410U 00041A   25330.04759730  .00002142  00000+0  00000+0 0  9993
2 26410 147.2482  23.2808 8724180 238.9692   0.5749  0.44813942 19397
CLUSTER II-FM8 (TANGO)  
1 26464U 00045B   25330.76375165  .00002148  00000+0  00000+0 0  9997
2 26464 147.5885  24.0350 8732161 239.5698   0.3951  0.44425998 19391
ODIN                    
1 26702U 01007A   25328.05666419  .00033941  00000+0  61017-3 0  9999
2 26702  97.4250 355.4112 0003780 159.5113 200.6290 15.49780699357439
TIMED                   
1 26998U 01055B   25328.30408441  .00001818  00000+0  17156-3 0  9999
2 26998  74.0674 287.3509 0001757 237.0078 123.0938 14.94586444300205
CORIOLIS                
1 27640U 03001A   25328.42081730  .00000161  00000+0  96459-4 0  9992
2 27640  98.7146 333.4407 0015112  83.4005 276.8891 14.19862767185163
SORCE                   
1 27651U 03004A   25328.42195640  .00003982  00000+0  30840-3 0  9998
2 27651  39.9924 348.6623 0016011  14.4262 345.6986 15.02071088241087
MOST                    
1 27843U 03031D   25328.42347248  .00000099  00000+0  65566-4 0  9994
2 27843  98.7072 334.0051 0010816 120.6644 239.5600 14.21262772161629
SCISAT 1                
1 27858U 03036A   25328.18374134  .00000980  00000+0  13086-3 0  9990
2 27858  73.9301 218.5575 0008056 320.7056  39.3534 14.81074873201092
SWIFT                   
1 28485U 04047A   25328.00569368  .00047842  00000+0  84112-3 0  9992
2 28485  20.5550 305.0180 0003851   4.2147 355.8328 15.48719748154804
HINODE (SOLAR-B)        
1 29479U 06041A   25328.01711016  .00000895  00000+0  16341-3 0  9998
2 29479  98.0660 342.1294 0016763 215.4889 144.5202 14.68256113 24761
SHIJIAN-6 02A (SJ-6 02A)
1 29505U 06046A   25328.55123980  .00007138  00000+0  39759-3 0  9994
2 29505  97.6641   3.1788 0004739 114.2090 245.9636 15.13923690 41271
SHIJIAN-6 02B (SJ-6 02B)
1 29506U 06046B   25328.54908876  .00001819  00000+0  14905-3 0  9995
2 29506  97.6876 354.3452 0015309  32.7183 327.4986 15.00435537 40045
FGRST (GLAST)           
1 33053U 08029A   25327.99249411  .00004058  00000+0  15650-3 0  9997
2 33053  25.5807 187.7556 0008962  68.0670 292.0820 15.22428848964516
SDO                     
1 36395U 10005A   25328.34992704 -.00000056  00000+0  00000+0 0  9990
2 36395  34.2215  89.4694 0001449 144.1577 214.1421  1.00271083 58002
CRYOSAT 2               
1 36508U 10013A   25328.45803402  .00000197  00000+0  48221-4 0  9990
2 36508  92.0264 227.7440 0002178  89.0854 271.0603 14.51900947828372
X-SAT                   
1 37389U 11015C   25328.50090698  .00000168  00000+0  89232-4 0  9997
2 37389  98.3294 310.5621 0013206 220.5886 139.4310 14.25118430758525
GCOM-W1 (SHIZUKU)       
1 38337U 12025A   25328.40692972  .00000747  00000+0  17590-3 0  9995
2 38337  98.2190 266.8558 0001744  78.4041  32.9796 14.57083134719217
NUSTAR                  
1 38358U 12031A   25328.58335647  .00007532  00000+0  44439-3 0  9998
2 38358   6.0245 125.9730 0009019 307.4780 139.5301 15.06087726  1309
NEOSSAT                 
1 39089U 13009D   25328.39422813  .00000239  00000+0  97453-4 0  9999
2 39089  98.4078 148.3771 0011823 133.0218 227.1960 14.35715805667354
BRITE-AUSTRIA           
1 39091U 13009F   25328.07600760  .00000273  00000+0  10761-3 0  9990
2 39091  98.3892 147.6772 0011104 128.8108 231.4072 14.36420011667608
IRIS                    
1 39197U 13033A   25328.47563604  .00001980  00000+0  23665-3 0  9996
2 39197  97.9402 163.3153 0023407 268.7908  91.0625 14.85174311669986
HISAKI (SPRINT-A)       
1 39253U 13049A   25328.01519598  .00000158  00000+0  12512-3 0  9994
2 39253  29.7179 183.0975 0136762 153.6068 207.1547 13.55518195603565
CASSIOPE                
1 39265U 13055A   25328.41951551  .00048173 -37502-6  65337-3 0  9994
2 39265  80.9303 312.6442 0350335  25.8149 336.0093 15.09309277636608
STSAT-3                 
1 39422U 13066G   25328.52973609  .00004420  00000+0  34842-3 0  9990
2 39422  97.5959 297.2958 0015996  12.5157 347.6462 15.01173155653486
SWARM B                 
1 39451U 13067A   25328.51046069  .00004354  00000+0  16406-3 0  9995
2 39451  87.7457  44.3801 0003234  96.8519 263.3098 15.26812947651998
SWARM A                 
1 39452U 13067B   25328.43855066  .00011466  00000+0  23510-3 0  9998
2 39452  87.3357 132.0007 0002437  86.2547 273.8989 15.45907986674567
SWARM C                 
1 39453U 13067C   25328.43843863  .00011815  00000+0  24223-3 0  9991
2 39453  87.3355 130.5865 0002406  85.9308 274.2225 15.45913676674525
BRITE-CA1 (TORONTO)     
1 40020U 14033L   25328.35658904  .00001741  00000+0  27161-3 0  9999
2 40020  97.9487  96.4971 0078743 211.9196 147.7228 14.72121260612079
OCO 2                   
1 40059U 14035A   25328.45125213  .00000631  00000+0  15013-3 0  9996
2 40059  98.2190 267.6440 0001219  60.4426 299.6894 14.57126919606232
BRITE-PL2 (HEWELIUSZ)   
1 40119U 14049B   25328.31043345  .00002973  00000+0  28718-3 0  9995
2 40119  97.8994  74.0847 0015596  71.5590 288.7323 14.93528021610854
MMS 1                   
1 40482U 15011A   25328.58335647 -.00000207  00000+0  00000+0 0  9995
2 40482  68.7545 351.9130 8524791 162.8676 309.8909  0.28324730  1388
MMS 2                   
1 40483U 15011B   25328.58335647 -.00000207  00000+0  00000+0 0  9996
2 40483  68.7529 351.9041 8526293 162.8837 309.8634  0.28322093  1385
MMS 3                   
1 40484U 15011C   25328.58335647 -.00000207  00000+0  00000+0 0  9997
2 40484  68.7563 351.9201 8526181 162.8802 309.8536  0.28324810  1380
MMS 4                   
1 40485U 15011D   25328.58335647 -.00000207  00000+0  00000+0 0  9998
2 40485  68.7552 351.9129 8527502 162.8673 309.8920  0.28324749  1368
ASTROSAT                
1 40930U 15052A   25328.14280105  .00002086  00000+0  17464-3 0  9990
2 40930   5.9951 190.7196 0008229 341.0456  18.9366 14.81944859549356
DAMPE                   
1 41173U 15078A   25328.52383134  .00001754  00000+0  62789-4 0  9998
2 41173  97.4545 328.1148 0013956  83.1873 277.0954 15.30069713553241
PISAT                   
1 41784U 16059B   25328.08302566  .00001230  00000+0  21918-3 0  9994
2 41784  97.8161 332.4722 0030207 138.6177 221.7325 14.68426681489634
HXMT (HUIYAN)           
1 42758U 17034A   25328.47583931  .00006855  00000+0  35730-3 0  9995
2 42758  43.0138 240.9630 0033964 289.0066  70.7103 15.16002468466565
FLYING LAPTOP           
1 42831U 17042G   25328.52165407  .00003391  00000+0  27858-3 0  9990
2 42831  97.4189 127.9853 0014282 106.5436 253.7358 14.99729135455765
ZHANGHENG 1-01 (CSES-1) 
1 43194U 18015C   25328.51408416  .00011400  00000+0  51422-3 0  9997
2 43194  97.6654 125.3740 0016846 281.4424  78.4919 15.21059833433535
SALSAT                  
1 46495U 20068K   25328.43469258  .00009871  00000+0  38785-3 0  9993
2 46495  97.8778 314.7270 0009026 307.1319  52.9093 15.25875681284090
IXPE                    
1 49954U 21121A   25328.50002315  .00011910  00000+0  70014-3 0  9990
2 49954   0.2299  62.2012 0007298 223.7588 276.5960 15.07668019  5765
